STARLINK-1167
1 45071U 20006AD  26090.44526215  .00052659  00000+0  17340-2 0  9994
2 45071  53.1590 156.8235 0002733  34.3066 325.8111 15.30999885340206
STARLINK-1153
1 45080U 20006AN  26090.55993877  .00066601  00000+0  21803-2 0  9999
2 45080  53.1600 156.2045 0002933  38.1457 321.9751 15.31080323340227
STARLINK-2446
1 47844U 21018BK  26090.51773466  .00010838  00000+0  36796-3 0  9998
2 47844  53.1584 144.3833 0001450  92.9852 267.1315 15.31035587280021
STARLINK-2517
1 48309U 21036AK  26089.99522663  .00005886  00000+0  20535-3 0  9997
2 48309  53.1626 349.4311 0001564 106.1439 253.9734 15.31047114271486
STARLINK-32120
1 60265U 24131L   26090.88358676  .00000236  00000+0  19699-4 0  9996
2 60265  53.1604 309.5494 0000934  80.9107 279.2000 15.31026063 95163
